$$SOE
2460721.500000000, A.D. 2025-Feb-15 00:00:00.0000, -2.670589838826438E+08, 2.144385646674105E+06, 1.329921821591776E+07,
2460728.500000000, A.D. 2025-Feb-22 00:00:00.0000, -2.672482023991139E+08, -1.091366579135672E+07, 8.528117121461179E+06,
2460735.500000000, A.D. 2025-Mar-01 00:00:00.0000, -2.667606045084768E+08, -2.394412117641577E+07, 3.735412996444632E+06,
2460742.500000000, A.D. 2025-Mar-08 00:00:00.0000, -2.655993266779052E+08, -3.691415549794308E+07, -1.066731027396185E+06,
2460749.500000000, A.D. 2025-Mar-15 00:00:00.0000, -2.637695085475204E+08, -4.979132401521453E+07, -5.866197653709367E+06,
2460756.500000000, A.D. 2025-Mar-22 00:00:00.0000, -2.612782506760649E+08, -6.254368589526448E+07, -1.065096263475875E+07,
2460763.500000000, A.D. 2025-Mar-29 00:00:00.0000, -2.581345606355539E+08, -7.513992465986671E+07, -1.540914080771761E+07,
2460770.500000000, A.D. 2025-Apr-05 00:00:00.0000, -2.543492878952215E+08, -8.754946139569083E+07, -2.012903038621686E+07,
2460777.500000000, A.D. 2025-Apr-12 00:00:00.0000, -2.499350502214508E+08, -9.974255982863587E+07, -2.479915499699462E+07,
2460784.500000000, A.D. 2025-Apr-19 00:00:00.0000, -2.449061526439256E+08, -1.116904235169081E+08, -2.940830321276882E+07,
2460791.500000000, A.D. 2025-Apr-26 00:00:00.0000, -2.392784996848390E+08, -1.233652849073673E+08, -3.394556536310135E+07,
2460798.500000000, A.D. 2025-May-03 00:00:00.0000, -2.330695017953455E+08, -1.347404859023818E+08, -3.840036743421233E+07,
2460805.500000000, A.D. 2025-May-10 00:00:00.0000, -2.262979770613176E+08, -1.457905496914909E+08, -4.276250192438788E+07,
2460812.500000000, A.D. 2025-May-17 00:00:00.0000, -2.189840492159800E+08, -1.564912437456614E+08, -4.702215557851628E+07,
2460819.500000000, A.D. 2025-May-24 00:00:00.0000, -2.111490428177189E+08, -1.668196339865758E+08, -5.116993397983304E+07,
2460826.500000000, A.D. 2025-May-31 00:00:00.0000, -2.028153761559700E+08, -1.767541298829681E+08, -5.519688300351337E+07,
2460833.500000000, A.D. 2025-Jun-07 00:00:00.0000, -1.940064532106804E+08, -1.862745194330778E+08, -5.909450701973322E+07,
2460840.500000000, A.D. 2025-Jun-14 00:00:00.0000, -1.847465578929714E+08, -1.953619949565234E+08, -6.285478373690154E+07,
2460847.500000000, A.D. 2025-Jun-21 00:00:00.0000, -1.750607501504000E+08, -2.039991733081644E+08, -6.647017614853263E+07,
2460854.500000000, A.D. 2025-Jun-28 00:00:00.0000, -1.649747615439851E+08, -2.121701091597862E+08, -6.993364184066054E+07,
2460861.500000000, A.D. 2025-Jul-05 00:00:00.0000, -1.545148924740989E+08, -2.198602996528735E+08, -7.323863948129150E+07,
2460868.500000000, A.D. 2025-Jul-12 00:00:00.0000, -1.437079128250951E+08, -2.270566817245606E+08, -7.637913260214038E+07,
2460875.500000000, A.D. 2025-Jul-19 00:00:00.0000, -1.325809663345774E+08, -2.337476232071677E+08, -7.934959090350428E+07,
2460882.500000000, A.D. 2025-Jul-26 00:00:00.0000, -1.211614788899498E+08, -2.399229083061677E+08, -8.214498928424816E+07,
2460889.500000000, A.D. 2025-Aug-02 00:00:00.0000, -1.094770710236665E+08, -2.455737179985280E+08, -8.476080479071963E+07,
2460896.500000000, A.D. 2025-Aug-09 00:00:00.0000, -9.755547485079274E+07, -2.506926059310254E+08, -8.719301168363976E+07,
2460903.500000000, A.D. 2025-Aug-16 00:00:00.0000, -8.542445556939036E+07, -2.552734704368008E+08, -8.943807483023056E+07,
2460910.500000000, A.D. 2025-Aug-23 00:00:00.0000, -7.311173736102560E+07, -2.593115231939076E+08, -9.149294163870716E+07,
2460917.500000000, A.D. 2025-Aug-30 00:00:00.0000, -6.064493343118644E+07, -2.628032543332671E+08, -9.335503269413058E+07,
2460924.500000000, A.D. 2025-Sep-06 00:00:00.0000, -4.805148162178287E+07, -2.657463934925092E+08, -9.502223106414014E+07,
2460931.500000000, A.D. 2025-Sep-13 00:00:00.0000, -3.535858723013110E+07, -2.681398697662866E+08, -9.649287049583554E+07,
2460938.500000000, A.D. 2025-Sep-20 00:00:00.0000, -2.259316968098519E+07, -2.699837726385300E+08, -9.776572310317513E+07,
2460945.500000000, A.D. 2025-Sep-27 00:00:00.0000, -9.781811878759651E+06, -2.712793111980762E+08, -9.883998654509129E+07,
2460952.500000000, A.D. 2025-Oct-04 00:00:00.0000, 3.049285887191188E+06, -2.720287714764836E+08, -9.971527061110877E+07,
2460959.500000000, A.D. 2025-Oct-11 00:00:00.0000, 1.587434728066065E+07, -2.722354731935101E+08, -1.003915833908699E+08,
2460966.500000000, A.D. 2025-Oct-18 00:00:00.0000, 2.866805697423149E+07, -2.719037264931741E+08, -1.008693171979036E+08,
2460973.500000000, A.D. 2025-Oct-25 00:00:00.0000, 4.140559376797796E+07, -2.710387889334925E+08, -1.011492343688379E+08,
2460980.500000000, A.D. 2025-Nov-01 00:00:00.0000, 5.406266003009811E+07, -2.696468229542783E+08, -1.012324530372677E+08,
2460987.500000000, A.D. 2025-Nov-08 00:00:00.0000, 6.661550772483654E+07, -2.677348540643025E+08, -1.011204329757435E+08,
2460994.500000000, A.D. 2025-Nov-15 00:00:00.0000, 7.904096141114995E+07, -2.653107299911553E+08, -1.008149616049987E+08,
2461001.500000000, A.D. 2025-Nov-22 00:00:00.0000, 9.131643884889831E+07, -2.623830807329759E+08, -1.003181402606422E+08,
2461008.500000000, A.D. 2025-Nov-29 00:00:00.0000, 1.034199692908062E+08, -2.589612785088679E+08, -9.963237067007610E+07,
2461015.500000000, A.D. 2025-Dec-06 00:00:00.0000, 1.153302074112253E+08, -2.550553978481620E+08, -9.876034149003305E+07,
2461022.500000000, A.D. 2025-Dec-13 00:00:00.0000, 1.270264435309560E+08, -2.506761792669032E+08, -9.770501525857301E+07,
2461029.500000000, A.D. 2025-Dec-20 00:00:00.0000, 1.384886138543586E+08, -2.458349955684568E+08, -9.646961603198372E+07,
2461036.500000000, A.D. 2025-Dec-27 00:00:00.0000, 1.496973098610971E+08, -2.405438182237874E+08, -9.505761742591737E+07,
2461043.500000000, A.D. 2026-Jan-03 00:00:00.0000, 1.606337855994252E+08, -2.348151844782004E+08, -9.347273100028563E+07,
2461050.500000000, A.D. 2026-Jan-10 00:00:00.0000, 1.712799631865134E+08, -2.286621658798876E+08, -9.171889506973943E+07,
2461057.500000000, A.D. 2026-Jan-17 00:00:00.0000, 1.816184369318734E+08, -2.220983383258275E+08, -8.980026397759089E+07,
2461064.500000000, A.D. 2026-Jan-24 00:00:00.0000, 1.916324763306572E+08, -2.151377535929823E+08, -8.772119783814429E+07,
2461071.500000000, A.D. 2026-Jan-31 00:00:00.0000, 2.013060281050960E+08, -2.077949123348798E+08, -8.548625273949447E+07,
2461078.500000000, A.D. 2026-Feb-07 00:00:00.0000, 2.106237175035544E+08, -2.000847385525259E+08, -8.310017140075690E+07,
2461085.500000000, A.D. 2026-Feb-14 00:00:00.0000, 2.195708492621886E+08, -1.920225554943076E+08, -8.056787429715468E+07,
2461092.500000000, A.D. 2026-Feb-21 00:00:00.0000, 2.281334087719990E+08, -1.836240623553042E+08, -7.789445124149093E+07,
2461099.500000000, A.D. 2026-Feb-28 00:00:00.0000, 2.362980625080708E+08, -1.749053105841390E+08, -7.508515322971000E+07,
2461106.500000000, A.D. 2026-Mar-07 00:00:00.0000, 2.440521557794485E+08, -1.658826817055402E+08, -7.214538451099265E+07,
2461113.500000000, A.D. 2026-Mar-14 00:00:00.0000, 2.513837106752146E+08, -1.565728689324843E+08, -6.908069530605567E+07,
2461120.500000000, A.D. 2026-Mar-21 00:00:00.0000, 2.582814260850349E+08, -1.469928596005508E+08, -6.589677507568775E+07,
2461127.500000000, A.D. 2026-Mar-28 00:00:00.0000, 2.647346778762484E+08, -1.371599173238429E+08, -6.259944604677014E+07,
2461134.500000000, A.D. 2026-Apr-04 00:00:00.0000, 2.707335187077457E+08, -1.270915647631272E+08, -5.919465699452645E+07,
2461141.500000000, A.D. 2026-Apr-11 00:00:00.0000, 2.762686778311758E+08, -1.168055672881089E+08, -5.568847731041299E+07,
2461148.500000000, A.D. 2026-Apr-18 00:00:00.0000, 2.813315611090651E+08, -1.063199174606907E+08, -5.208709134555654E+07,
2461155.500000000, A.D. 2026-Apr-25 00:00:00.0000, 2.859142513601999E+08, -9.565282024385692E+07, -4.839679300720354E+07,
2461162.500000000, A.D. 2026-May-02 00:00:00.0000, 2.900095091214570E+08, -8.482267888543648E+07, -4.462398058719277E+07,
2461169.500000000, A.D. 2026-May-09 00:00:00.0000, 2.936107740000484E+08, -7.384808146311319E+07, -4.077515181157091E+07,
2461176.500000000, A.D. 2026-May-16 00:00:00.0000, 2.967121670312308E+08, -6.274778786795540E+07, -3.685689910482903E+07,
2461183.500000000, A.D. 2026-May-23 00:00:00.0000, 2.993084941289061E+08, -5.154071611146067E+07, -3.287590495989931E+07,
2461190.500000000, A.D. 2026-May-30 00:00:00.0000, 3.013952485941628E+08, -4.024592754915953E+07, -2.883893716870716E+07,
2461197.500000000, A.D. 2026-Jun-06 00:00:00.0000, 3.029686123952439E+08, -2.888261421499668E+07, -2.475284412142273E+07,
2461204.500000000, A.D. 2026-Jun-13 00:00:00.0000, 3.040254598964054E+08, -1.747008797977410E+07, -2.062455046131415E+07,
2461211.500000000, A.D. 2026-Jun-20 00:00:00.0000, 3.045633635445123E+08, -6.027768513132064E+06, -1.646105277713744E+07,
2461218.500000000, A.D. 2026-Jun-27 00:00:00.0000, 3.045805998247415E+08, 5.424829704260245E+06, -1.226941517233062E+07,
2461225.500000000, A.D. 2026-Jul-04 00:00:00.0000, 3.040761554887740E+08, 1.686811063623324E+07, -8.056764740888369E+06,
2461232.500000000, A.D. 2026-Jul-11 00:00:00.0000, 3.030497343055629E+08, 2.828241017656231E+07, -3.830286949677677E+06,
2461239.500000000, A.D. 2026-Jul-18 00:00:00.0000, 3.015017644167188E+08, 3.964800998575095E+07, 4.027791015137061E+05,
2461246.500000000, A.D. 2026-Jul-25 00:00:00.0000, 2.994334063037660E+08, 5.094515177918164E+07, 4.635145576114599E+06,
2461253.500000000, A.D. 2026-Aug-01 00:00:00.0000, 2.968465613922823E+08, 6.215405211723323E+07, 8.859480981621463E+06,
2461260.500000000, A.D. 2026-Aug-08 00:00:00.0000, 2.937438814786837E+08, 7.325491775948437E+07, 1.306841545025483E+07,
2461267.500000000, A.D. 2026-Aug-15 00:00:00.0000, 2.901287793522457E+08, 8.422796212791534E+07, 1.725454625566617E+07,
2461274.500000000, A.D. 2026-Aug-22 00:00:00.0000, 2.860054397905707E+08, 9.505342420150489E+07, 2.141044377259087E+07,
2461281.500000000, A.D. 2026-Aug-29 00:00:00.0000, 2.813788285855612E+08, 1.057115885821179E+08, 2.552865801789426E+07,
$$EOE